STARLINK-36624          
1 67636U 26020V   26042.91668981  .00011502  00000+0  57132-4 0  9990
2 67636  42.9987 298.6463 0001573 283.6052 315.1045 15.81996123  3242
STARLINK-36610          
1 67637U 26020W   26042.91668981  .00001373  00000+0  11428-4 0  9994
2 67637  42.9990 298.6737 0001280 264.3101 323.0525 15.76350235  3240
STARLINK-36599          
1 67638U 26020X   26042.91668981  .00034809  00000+0  16741-3 0  9997
2 67638  42.9984 298.6131 0001552 254.8753 356.8767 15.81985624  3245
STARLINK-36595          
1 67639U 26020Y   26042.91668981  .00022634  00000+0  10987-3 0  9997
2 67639  42.9985 298.6017 0001531 264.7465 351.4911 15.81989751  3244
STARLINK-36570          
1 67640U 26020Z   26042.91668981 -.01925322  00000+0 -11404-1 0  9991
2 67640  42.9986 298.5957 0001334 259.4319 358.8038 15.80244329  3244
STARLINK-36514          
1 67641U 26020AA  26042.91668981  .00032879  00000+0  15830-3 0  9994
2 67641  42.9985 298.5683 0001793 297.9020 331.4141 15.81985755  3243
STARLINK-36556          
1 67642U 26020AB  26042.91668981 -.00003388  00000+0 -13580-4 0  9991
2 67642  42.9985 298.5581 0001565 249.1966  23.7505 15.81991351  3240
STARLINK-36533          
1 67643U 26020AC  26042.91668981 -.00085183  00000+0 -52430-3 0  9991
2 67643  42.9987 298.6106 0001659 279.1488 333.0761 15.76411599  3249
STARLINK-36623          
1 67644U 26020AD  26042.91668981 -.01939326  00000+0 -11298-1 0  9995
2 67644  42.9985 298.5354 0001659 262.6695  19.1701 15.80619563  3241
STARLINK-36619          
1 67645U 26020AE  26042.91668981  .00031522  00000+0  15191-3 0  9992
2 67645  42.9982 298.5449 0002235 231.1963  47.0057 15.81982207  3247
ALSAT-3B                
1 67646U 26021A   26042.90279647  .00007517  00000+0  31687-3 0  9995
2 67646  97.4721 117.3505 0011784 220.9902 139.0450 15.23553293  1795
CZ-2C R/B               
1 67647U 26021B   26042.90546381  .00015044  00000+0  45488-3 0  9996
2 67647  97.6561 117.8548 0153838 100.8009 261.0586 15.23378523  1778
