CCSDS_OMM_VERS = 2.0
CREATION_DATE  = 
ORIGINATOR     = 

OBJECT_NAME    = STARLINK-36624
OBJECT_ID      = 2026-020V
CENTER_NAME    = EARTH
REF_FRAME      = TEME
TIME_SYSTEM    = UTC
MEAN_ELEMENT_THEORY = SGP/SGP4

EPOCH          = 2026-02-11T22:00:01.999584
MEAN_MOTION    = 15.81996123
ECCENTRICITY   = .00015731
INCLINATION    = 42.9987
RA_OF_ASC_NODE = 298.6463
ARG_OF_PERICENTER = 283.6052
MEAN_ANOMALY   = 315.1045

EPHEMERIS_TYPE = 0
CLASSIFICATION_TYPE = U
NORAD_CAT_ID   = 67636
ELEMENT_SET_NO = 999
REV_AT_EPOCH   = 324
BSTAR          = .57131774E-4
MEAN_MOTION_DOT = .11502E-3
MEAN_MOTION_DDOT = 0

CCSDS_OMM_VERS = 2.0
CREATION_DATE  = 
ORIGINATOR     = 

OBJECT_NAME    = STARLINK-36610
OBJECT_ID      = 2026-020W
CENTER_NAME    = EARTH
REF_FRAME      = TEME
TIME_SYSTEM    = UTC
MEAN_ELEMENT_THEORY = SGP/SGP4

EPOCH          = 2026-02-11T22:00:01.999584
MEAN_MOTION    = 15.76350235
ECCENTRICITY   = .00012803
INCLINATION    = 42.9990
RA_OF_ASC_NODE = 298.6737
ARG_OF_PERICENTER = 264.3101
MEAN_ANOMALY   = 323.0525

EPHEMERIS_TYPE = 0
CLASSIFICATION_TYPE = U
NORAD_CAT_ID   = 67637
ELEMENT_SET_NO = 999
REV_AT_EPOCH   = 324
BSTAR          = .11427655E-4
MEAN_MOTION_DOT = .1373E-4
MEAN_MOTION_DDOT = 0

CCSDS_OMM_VERS = 2.0
CREATION_DATE  = 
ORIGINATOR     = 

OBJECT_NAME    = STARLINK-36599
OBJECT_ID      = 2026-020X
CENTER_NAME    = EARTH
REF_FRAME      = TEME
TIME_SYSTEM    = UTC
MEAN_ELEMENT_THEORY = SGP/SGP4

EPOCH          = 2026-02-11T22:00:01.999584
MEAN_MOTION    = 15.81985624
ECCENTRICITY   = .0001552
INCLINATION    = 42.9984
RA_OF_ASC_NODE = 298.6131
ARG_OF_PERICENTER = 254.8753
MEAN_ANOMALY   = 356.8767

EPHEMERIS_TYPE = 0
CLASSIFICATION_TYPE = U
NORAD_CAT_ID   = 67638
ELEMENT_SET_NO = 999
REV_AT_EPOCH   = 324
BSTAR          = .16740979E-3
MEAN_MOTION_DOT = .34809E-3
MEAN_MOTION_DDOT = 0

CCSDS_OMM_VERS = 2.0
CREATION_DATE  = 
ORIGINATOR     = 

OBJECT_NAME    = STARLINK-36595
OBJECT_ID      = 2026-020Y
CENTER_NAME    = EARTH
REF_FRAME      = TEME
TIME_SYSTEM    = UTC
MEAN_ELEMENT_THEORY = SGP/SGP4

EPOCH          = 2026-02-11T22:00:01.999584
MEAN_MOTION    = 15.81989751
ECCENTRICITY   = .00015318
INCLINATION    = 42.9985
RA_OF_ASC_NODE = 298.6017
ARG_OF_PERICENTER = 264.7465
MEAN_ANOMALY   = 351.4911

EPHEMERIS_TYPE = 0
CLASSIFICATION_TYPE = U
NORAD_CAT_ID   = 67639
ELEMENT_SET_NO = 999
REV_AT_EPOCH   = 324
BSTAR          = .10987311E-3
MEAN_MOTION_DOT = .22634E-3
MEAN_MOTION_DDOT = 0

CCSDS_OMM_VERS = 2.0
CREATION_DATE  = 
ORIGINATOR     = 

OBJECT_NAME    = STARLINK-36570
OBJECT_ID      = 2026-020Z
CENTER_NAME    = EARTH
REF_FRAME      = TEME
TIME_SYSTEM    = UTC
MEAN_ELEMENT_THEORY = SGP/SGP4

EPOCH          = 2026-02-11T22:00:01.999584
MEAN_MOTION    = 15.80244329
ECCENTRICITY   = .00013343
INCLINATION    = 42.9986
RA_OF_ASC_NODE = 298.5957
ARG_OF_PERICENTER = 259.4319
MEAN_ANOMALY   = 358.8038

EPHEMERIS_TYPE = 0
CLASSIFICATION_TYPE = U
NORAD_CAT_ID   = 67640
ELEMENT_SET_NO = 999
REV_AT_EPOCH   = 324
BSTAR          = -.11403602E-1
MEAN_MOTION_DOT = -.1925322E-1
MEAN_MOTION_DDOT = 0

CCSDS_OMM_VERS = 2.0
CREATION_DATE  = 
ORIGINATOR     = 

OBJECT_NAME    = STARLINK-36514
OBJECT_ID      = 2026-020AA
CENTER_NAME    = EARTH
REF_FRAME      = TEME
TIME_SYSTEM    = UTC
MEAN_ELEMENT_THEORY = SGP/SGP4

EPOCH          = 2026-02-11T22:00:01.999584
MEAN_MOTION    = 15.81985755
ECCENTRICITY   = .00017935
INCLINATION    = 42.9985
RA_OF_ASC_NODE = 298.5683
ARG_OF_PERICENTER = 297.9020
MEAN_ANOMALY   = 331.4141

EPHEMERIS_TYPE = 0
CLASSIFICATION_TYPE = U
NORAD_CAT_ID   = 67641
ELEMENT_SET_NO = 999
REV_AT_EPOCH   = 324
BSTAR          = .15830046E-3
MEAN_MOTION_DOT = .32879E-3
MEAN_MOTION_DDOT = 0

CCSDS_OMM_VERS = 2.0
CREATION_DATE  = 
ORIGINATOR     = 

OBJECT_NAME    = STARLINK-36556
OBJECT_ID      = 2026-020AB
CENTER_NAME    = EARTH
REF_FRAME      = TEME
TIME_SYSTEM    = UTC
MEAN_ELEMENT_THEORY = SGP/SGP4

EPOCH          = 2026-02-11T22:00:01.999584
MEAN_MOTION    = 15.81991351
ECCENTRICITY   = .00015652
INCLINATION    = 42.9985
RA_OF_ASC_NODE = 298.5581
ARG_OF_PERICENTER = 249.1966
MEAN_ANOMALY   = 23.7505

EPHEMERIS_TYPE = 0
CLASSIFICATION_TYPE = U
NORAD_CAT_ID   = 67642
ELEMENT_SET_NO = 999
REV_AT_EPOCH   = 324
BSTAR          = -.13579976E-4
MEAN_MOTION_DOT = -.3388E-4
MEAN_MOTION_DDOT = 0

CCSDS_OMM_VERS = 2.0
CREATION_DATE  = 
ORIGINATOR     = 

OBJECT_NAME    = STARLINK-36533
OBJECT_ID      = 2026-020AC
CENTER_NAME    = EARTH
REF_FRAME      = TEME
TIME_SYSTEM    = UTC
MEAN_ELEMENT_THEORY = SGP/SGP4

EPOCH          = 2026-02-11T22:00:01.999584
MEAN_MOTION    = 15.76411599
ECCENTRICITY   = .00016598
INCLINATION    = 42.9987
RA_OF_ASC_NODE = 298.6106
ARG_OF_PERICENTER = 279.1488
MEAN_ANOMALY   = 333.0761

EPHEMERIS_TYPE = 0
CLASSIFICATION_TYPE = U
NORAD_CAT_ID   = 67643
ELEMENT_SET_NO = 999
REV_AT_EPOCH   = 324
BSTAR          = -.52429904E-3
MEAN_MOTION_DOT = -.85183E-3
MEAN_MOTION_DDOT = 0

CCSDS_OMM_VERS = 2.0
CREATION_DATE  = 
ORIGINATOR     = 

OBJECT_NAME    = STARLINK-36623
OBJECT_ID      = 2026-020AD
CENTER_NAME    = EARTH
REF_FRAME      = TEME
TIME_SYSTEM    = UTC
MEAN_ELEMENT_THEORY = SGP/SGP4

EPOCH          = 2026-02-11T22:00:01.999584
MEAN_MOTION    = 15.80619563
ECCENTRICITY   = .00016594
INCLINATION    = 42.9985
RA_OF_ASC_NODE = 298.5354
ARG_OF_PERICENTER = 262.6695
MEAN_ANOMALY   = 19.1701

EPHEMERIS_TYPE = 0
CLASSIFICATION_TYPE = U
NORAD_CAT_ID   = 67644
ELEMENT_SET_NO = 999
REV_AT_EPOCH   = 324
BSTAR          = -.11297694E-1
MEAN_MOTION_DOT = -.1939326E-1
MEAN_MOTION_DDOT = 0

CCSDS_OMM_VERS = 2.0
CREATION_DATE  = 
ORIGINATOR     = 

OBJECT_NAME    = STARLINK-36619
OBJECT_ID      = 2026-020AE
CENTER_NAME    = EARTH
REF_FRAME      = TEME
TIME_SYSTEM    = UTC
MEAN_ELEMENT_THEORY = SGP/SGP4

EPOCH          = 2026-02-11T22:00:01.999584
MEAN_MOTION    = 15.81982207
ECCENTRICITY   = .00022357
INCLINATION    = 42.9982
RA_OF_ASC_NODE = 298.5449
ARG_OF_PERICENTER = 231.1963
MEAN_ANOMALY   = 47.0057

EPHEMERIS_TYPE = 0
CLASSIFICATION_TYPE = U
NORAD_CAT_ID   = 67645
ELEMENT_SET_NO = 999
REV_AT_EPOCH   = 324
BSTAR          = .15191441E-3
MEAN_MOTION_DOT = .31522E-3
MEAN_MOTION_DDOT = 0

CCSDS_OMM_VERS = 2.0
CREATION_DATE  = 
ORIGINATOR     = 

OBJECT_NAME    = ALSAT-3B
OBJECT_ID      = 2026-021A
CENTER_NAME    = EARTH
REF_FRAME      = TEME
TIME_SYSTEM    = UTC
MEAN_ELEMENT_THEORY = SGP/SGP4

EPOCH          = 2026-02-11T21:40:01.615008
MEAN_MOTION    = 15.23553293
ECCENTRICITY   = .00117841
INCLINATION    = 97.4721
RA_OF_ASC_NODE = 117.3505
ARG_OF_PERICENTER = 220.9902
MEAN_ANOMALY   = 139.0450

EPHEMERIS_TYPE = 0
CLASSIFICATION_TYPE = U
NORAD_CAT_ID   = 67646
ELEMENT_SET_NO = 999
REV_AT_EPOCH   = 179
BSTAR          = .31686769E-3
MEAN_MOTION_DOT = .7517E-4
MEAN_MOTION_DDOT = 0

CCSDS_OMM_VERS = 2.0
CREATION_DATE  = 
ORIGINATOR     = 

OBJECT_NAME    = CZ-2C R/B
OBJECT_ID      = 2026-021B
CENTER_NAME    = EARTH
REF_FRAME      = TEME
TIME_SYSTEM    = UTC
MEAN_ELEMENT_THEORY = SGP/SGP4

EPOCH          = 2026-02-11T21:43:52.073184
MEAN_MOTION    = 15.23378523
ECCENTRICITY   = .01538382
INCLINATION    = 97.6561
RA_OF_ASC_NODE = 117.8548
ARG_OF_PERICENTER = 100.8009
MEAN_ANOMALY   = 261.0586

EPHEMERIS_TYPE = 0
CLASSIFICATION_TYPE = U
NORAD_CAT_ID   = 67647
ELEMENT_SET_NO = 999
REV_AT_EPOCH   = 177
BSTAR          = .45487943E-3
MEAN_MOTION_DOT = .15044E-3
MEAN_MOTION_DDOT = 0

